STARLINK-35492          
1 65926U 25225S   25307.83336806 -.00099652  00000+0 -18042-2 0  9997
2 65926  53.1600  32.3238 0000885  80.7169 149.2976 15.49347094  5175
STARLINK-35494          
1 65927U 25225T   25307.83336806 -.00099766  00000+0 -18064-2 0  9998
2 65927  53.1602  32.3150 0000934  60.1562 173.6968 15.49345203  5177
STARLINK-35493          
1 65928U 25225U   25307.83336806 -.00107954  00000+0 -19571-2 0  9992
2 65928  53.1603  32.3070 0000948  71.2092 166.4763 15.49349762  5128
STARLINK-35175          
1 65929U 25225V   25307.83336806 -.00090966  00000+0 -16446-2 0  9995
2 65929  53.1601  32.3034 0001003  79.3425 160.2570 15.49343312  5177
STARLINK-35513          
1 65930U 25225W   25307.83336806 -.00101162  00000+0 -18320-2 0  9991
2 65930  53.1603  32.3109 0000975  57.9981 177.7684 15.49347477  5175
STARLINK-35526          
1 65931U 25225X   25307.83336806 -.00100979  00000+0 -18286-2 0  9998
2 65931  53.1601  32.2987 0000985  78.4732 163.0436 15.49347148  5178
STARLINK-35436          
1 65932U 25225Y   25307.83336806 -.00094499  00000+0 -17094-2 0  9994
2 65932  53.1601  32.2954 0001019  78.9646 164.4681 15.49345243  5172
STARLINK-35192          
1 65933U 25225Z   25307.83336806 -.00087269  00000+0 -15767-2 0  9997
2 65933  53.1601  32.2829 0001052  69.0247 180.1557 15.49342194  5178
STARLINK-33921          
1 65934U 25225AA  25307.83336806 -.00080055  00000+0 -14446-2 0  9997
2 65934  53.1601  32.2912 0000980  82.7334 162.6135 15.49338677  5167
STARLINK-35155          
1 65935U 25225AB  25307.83336806 -.00088503  00000+0 -15995-2 0  9994
2 65935  53.1601  32.2872 0000982  59.4706 187.7963 15.49340957  5160
STARLINK-35161          
1 65936U 25225AC  25307.83336806 -.00082810  00000+0 -14950-2 0  9990
2 65936  53.1602  32.2796 0000997  61.0284 190.0677 15.49340686  5172
STARLINK-35473          
1 65937U 25225AD  25307.83336806 -.00088014  00000+0 -15904-2 0  9993
2 65937  53.1601  32.2760 0000992  67.3903 185.6235 15.49342601  5174
STARLINK-34849          
1 66005U 25232A   25306.25002315 -.01971328  00000+0 -26564-1 0  9991
2 66005  53.1594 338.8643 0001154  90.8987 199.4714 15.60629157  3036
STARLINK-35336          
1 66006U 25232B   25307.83336806 -.02011263  00000+0 -34556-1 0  9996
2 66006  53.1597 331.1982 0001376  72.2960 101.0977 15.53708818  3295
STARLINK-35196          
1 66007U 25232C   25307.83336806 -.02013034  00000+0 -34591-1 0  9994
2 66007  53.1595 331.1949 0001233  73.6823 101.6288 15.53709662  3291
STARLINK-35236          
1 66008U 25232D   25307.83336806 -.02013790  00000+0 -34604-1 0  9999
2 66008  53.1592 331.1904 0001256  71.0385 106.1886 15.53710586  3291
STARLINK-35276          
1 66009U 25232E   25307.83336806 -.02014097  00000+0 -34612-1 0  9990
2 66009  53.1593 331.1865 0001219  81.5931  97.5537 15.53709554  3289
