[{"OBJECT_NAME":"STARLINK-35492","OBJECT_ID":"2025-225S","EPOCH":"2025-11-03T20:00:03.000384","MEAN_MOTION":15.49347094,"ECCENTRICITY":8.85e-5,"INCLINATION":53.16,"RA_OF_ASC_NODE":32.3238,"ARG_OF_PERICENTER":80.7169,"MEAN_ANOMALY":149.2976,"EPHEMERIS_TYPE":0,"CLASSIFICATION_TYPE":"U","NORAD_CAT_ID":65926,"ELEMENT_SET_NO":999,"REV_AT_EPOCH":517,"BSTAR":-0.0018042,"MEAN_MOTION_DOT":-0.00099652,"MEAN_MOTION_DDOT":0},{"OBJECT_NAME":"STARLINK-35494","OBJECT_ID":"2025-225T","EPOCH":"2025-11-03T20:00:03.000384","MEAN_MOTION":15.49345203,"ECCENTRICITY":9.34e-5,"INCLINATION":53.1602,"RA_OF_ASC_NODE":32.315,"ARG_OF_PERICENTER":60.1562,"MEAN_ANOMALY":173.6968,"EPHEMERIS_TYPE":0,"CLASSIFICATION_TYPE":"U","NORAD_CAT_ID":65927,"ELEMENT_SET_NO":999,"REV_AT_EPOCH":517,"BSTAR":-0.0018064,"MEAN_MOTION_DOT":-0.00099766,"MEAN_MOTION_DDOT":0},{"OBJECT_NAME":"STARLINK-35493","OBJECT_ID":"2025-225U","EPOCH":"2025-11-03T20:00:03.000384","MEAN_MOTION":15.49349762,"ECCENTRICITY":9.48e-5,"INCLINATION":53.1603,"RA_OF_ASC_NODE":32.307,"ARG_OF_PERICENTER":71.2092,"MEAN_ANOMALY":166.4763,"EPHEMERIS_TYPE":0,"CLASSIFICATION_TYPE":"U","NORAD_CAT_ID":65928,"ELEMENT_SET_NO":999,"REV_AT_EPOCH":512,"BSTAR":-0.0019571,"MEAN_MOTION_DOT":-0.00107954,"MEAN_MOTION_DDOT":0},{"OBJECT_NAME":"STARLINK-35175","OBJECT_ID":"2025-225V","EPOCH":"2025-11-03T20:00:03.000384","MEAN_MOTION":15.49343312,"ECCENTRICITY":0.0001003,"INCLINATION":53.1601,"RA_OF_ASC_NODE":32.3034,"ARG_OF_PERICENTER":79.3425,"MEAN_ANOMALY":160.257,"EPHEMERIS_TYPE":0,"CLASSIFICATION_TYPE":"U","NORAD_CAT_ID":65929,"ELEMENT_SET_NO":999,"REV_AT_EPOCH":517,"BSTAR":-0.0016446,"MEAN_MOTION_DOT":-0.00090966,"MEAN_MOTION_DDOT":0},{"OBJECT_NAME":"STARLINK-35513","OBJECT_ID":"2025-225W","EPOCH":"2025-11-03T20:00:03.000384","MEAN_MOTION":15.49347477,"ECCENTRICITY":9.75e-5,"INCLINATION":53.1603,"RA_OF_ASC_NODE":32.3109,"ARG_OF_PERICENTER":57.9981,"MEAN_ANOMALY":177.7684,"EPHEMERIS_TYPE":0,"CLASSIFICATION_TYPE":"U","NORAD_CAT_ID":65930,"ELEMENT_SET_NO":999,"REV_AT_EPOCH":517,"BSTAR":-0.001832,"MEAN_MOTION_DOT":-0.00101162,"MEAN_MOTION_DDOT":0},{"OBJECT_NAME":"STARLINK-35526","OBJECT_ID":"2025-225X","EPOCH":"2025-11-03T20:00:03.000384","MEAN_MOTION":15.49347148,"ECCENTRICITY":9.85e-5,"INCLINATION":53.1601,"RA_OF_ASC_NODE":32.2987,"ARG_OF_PERICENTER":78.4732,"MEAN_ANOMALY":163.0436,"EPHEMERIS_TYPE":0,"CLASSIFICATION_TYPE":"U","NORAD_CAT_ID":65931,"ELEMENT_SET_NO":999,"REV_AT_EPOCH":517,"BSTAR":-0.0018286,"MEAN_MOTION_DOT":-0.00100979,"MEAN_MOTION_DDOT":0},{"OBJECT_NAME":"STARLINK-35436","OBJECT_ID":"2025-225Y","EPOCH":"2025-11-03T20:00:03.000384","MEAN_MOTION":15.49345243,"ECCENTRICITY":0.0001019,"INCLINATION":53.1601,"RA_OF_ASC_NODE":32.2954,"ARG_OF_PERICENTER":78.9646,"MEAN_ANOMALY":164.4681,"EPHEMERIS_TYPE":0,"CLASSIFICATION_TYPE":"U","NORAD_CAT_ID":65932,"ELEMENT_SET_NO":999,"REV_AT_EPOCH":517,"BSTAR":-0.0017094,"MEAN_MOTION_DOT":-0.00094499,"MEAN_MOTION_DDOT":0},{"OBJECT_NAME":"STARLINK-35192","OBJECT_ID":"2025-225Z","EPOCH":"2025-11-03T20:00:03.000384","MEAN_MOTION":15.49342194,"ECCENTRICITY":0.0001052,"INCLINATION":53.1601,"RA_OF_ASC_NODE":32.2829,"ARG_OF_PERICENTER":69.0247,"MEAN_ANOMALY":180.1557,"EPHEMERIS_TYPE":0,"CLASSIFICATION_TYPE":"U","NORAD_CAT_ID":65933,"ELEMENT_SET_NO":999,"REV_AT_EPOCH":517,"BSTAR":-0.0015767,"MEAN_MOTION_DOT":-0.00087269,"MEAN_MOTION_DDOT":0},{"OBJECT_NAME":"STARLINK-33921","OBJECT_ID":"2025-225AA","EPOCH":"2025-11-03T20:00:03.000384","MEAN_MOTION":15.49338677,"ECCENTRICITY":9.8e-5,"INCLINATION":53.1601,"RA_OF_ASC_NODE":32.2912,"ARG_OF_PERICENTER":82.7334,"MEAN_ANOMALY":162.6135,"EPHEMERIS_TYPE":0,"CLASSIFICATION_TYPE":"U","NORAD_CAT_ID":65934,"ELEMENT_SET_NO":999,"REV_AT_EPOCH":516,"BSTAR":-0.0014446,"MEAN_MOTION_DOT":-0.00080055,"MEAN_MOTION_DDOT":0},{"OBJECT_NAME":"STARLINK-35155","OBJECT_ID":"2025-225AB","EPOCH":"2025-11-03T20:00:03.000384","MEAN_MOTION":15.49340957,"ECCENTRICITY":9.82e-5,"INCLINATION":53.1601,"RA_OF_ASC_NODE":32.2872,"ARG_OF_PERICENTER":59.4706,"MEAN_ANOMALY":187.7963,"EPHEMERIS_TYPE":0,"CLASSIFICATION_TYPE":"U","NORAD_CAT_ID":65935,"ELEMENT_SET_NO":999,"REV_AT_EPOCH":516,"BSTAR":-0.0015995,"MEAN_MOTION_DOT":-0.00088503,"MEAN_MOTION_DDOT":0},{"OBJECT_NAME":"STARLINK-35161","OBJECT_ID":"2025-225AC","EPOCH":"2025-11-03T20:00:03.000384","MEAN_MOTION":15.49340686,"ECCENTRICITY":9.97e-5,"INCLINATION":53.1602,"RA_OF_ASC_NODE":32.2796,"ARG_OF_PERICENTER":61.0284,"MEAN_ANOMALY":190.0677,"EPHEMERIS_TYPE":0,"CLASSIFICATION_TYPE":"U","NORAD_CAT_ID":65936,"ELEMENT_SET_NO":999,"REV_AT_EPOCH":517,"BSTAR":-0.001495,"MEAN_MOTION_DOT":-0.0008281,"MEAN_MOTION_DDOT":0},{"OBJECT_NAME":"STARLINK-35473","OBJECT_ID":"2025-225AD","EPOCH":"2025-11-03T20:00:03.000384","MEAN_MOTION":15.49342601,"ECCENTRICITY":9.92e-5,"INCLINATION":53.1601,"RA_OF_ASC_NODE":32.276,"ARG_OF_PERICENTER":67.3903,"MEAN_ANOMALY":185.6235,"EPHEMERIS_TYPE":0,"CLASSIFICATION_TYPE":"U","NORAD_CAT_ID":65937,"ELEMENT_SET_NO":999,"REV_AT_EPOCH":517,"BSTAR":-0.0015904,"MEAN_MOTION_DOT":-0.00088014,"MEAN_MOTION_DDOT":0},{"OBJECT_NAME":"STARLINK-34849","OBJECT_ID":"2025-232A","EPOCH":"2025-11-02T06:00:02.000160","MEAN_MOTION":15.60629157,"ECCENTRICITY":0.00011543,"INCLINATION":53.1594,"RA_OF_ASC_NODE":338.8643,"ARG_OF_PERICENTER":90.8987,"MEAN_ANOMALY":199.4714,"EPHEMERIS_TYPE":0,"CLASSIFICATION_TYPE":"U","NORAD_CAT_ID":66005,"ELEMENT_SET_NO":999,"REV_AT_EPOCH":303,"BSTAR":-0.026564298,"MEAN_MOTION_DOT":-0.01971328,"MEAN_MOTION_DDOT":0},{"OBJECT_NAME":"STARLINK-35336","OBJECT_ID":"2025-232B","EPOCH":"2025-11-03T20:00:03.000384","MEAN_MOTION":15.53708818,"ECCENTRICITY":0.0001376,"INCLINATION":53.1597,"RA_OF_ASC_NODE":331.1982,"ARG_OF_PERICENTER":72.296,"MEAN_ANOMALY":101.0977,"EPHEMERIS_TYPE":0,"CLASSIFICATION_TYPE":"U","NORAD_CAT_ID":66006,"ELEMENT_SET_NO":999,"REV_AT_EPOCH":329,"BSTAR":-0.034556,"MEAN_MOTION_DOT":-0.02011263,"MEAN_MOTION_DDOT":0},{"OBJECT_NAME":"STARLINK-35196","OBJECT_ID":"2025-232C","EPOCH":"2025-11-03T20:00:03.000384","MEAN_MOTION":15.53709662,"ECCENTRICITY":0.0001233,"INCLINATION":53.1595,"RA_OF_ASC_NODE":331.1949,"ARG_OF_PERICENTER":73.6823,"MEAN_ANOMALY":101.6288,"EPHEMERIS_TYPE":0,"CLASSIFICATION_TYPE":"U","NORAD_CAT_ID":66007,"ELEMENT_SET_NO":999,"REV_AT_EPOCH":329,"BSTAR":-0.034591,"MEAN_MOTION_DOT":-0.02013034,"MEAN_MOTION_DDOT":0},{"OBJECT_NAME":"STARLINK-35236","OBJECT_ID":"2025-232D","EPOCH":"2025-11-03T20:00:03.000384","MEAN_MOTION":15.53710586,"ECCENTRICITY":0.0001256,"INCLINATION":53.1592,"RA_OF_ASC_NODE":331.1904,"ARG_OF_PERICENTER":71.0385,"MEAN_ANOMALY":106.1886,"EPHEMERIS_TYPE":0,"CLASSIFICATION_TYPE":"U","NORAD_CAT_ID":66008,"ELEMENT_SET_NO":999,"REV_AT_EPOCH":329,"BSTAR":-0.034604,"MEAN_MOTION_DOT":-0.0201379,"MEAN_MOTION_DDOT":0},{"OBJECT_NAME":"STARLINK-35276","OBJECT_ID":"2025-232E","EPOCH":"2025-11-03T20:00:03.000384","MEAN_MOTION":15.53709554,"ECCENTRICITY":0.0001219,"INCLINATION":53.1593,"RA_OF_ASC_NODE":331.1865,"ARG_OF_PERICENTER":81.5931,"MEAN_ANOMALY":97.5537,"EPHEMERIS_TYPE":0,"CLASSIFICATION_TYPE":"U","NORAD_CAT_ID":66009,"ELEMENT_SET_NO":999,"REV_AT_EPOCH":328,"BSTAR":-0.034612,"MEAN_MOTION_DOT":-0.02014097,"MEAN_MOTION_DDOT":0}]
